start=new Date('2023-05-02T00:00:00.000Z').valueOf();
sats=[{"PERIAPSIS":"538.961","OBJECT_TYPE":"PAYLOAD","MEAN_ANOMALY":"276.7733","NORAD_CAT_ID":"53567","EPOCH":"2023-05-01T05:01:45.787008","APOAPSIS":"540.538","CLASSIFICATION_TYPE":"U","CENTER_NAME":"EARTH","ECCENTRICITY":"0.00011400","GP_ID":"231021417","TLE_LINE1":"1 53567U 22101AS  23121.20955772  .00000830  00000-0  70258-4 0  9995","PERIOD":"95.438","RA_OF_ASC_NODE":"58.5922","EPHEMERIS_TYPE":"0","INCLINATION":"53.2185","FILE":"3898258","SEMIMAJOR_AXIS":"6917.885","MEAN_MOTION_DOT":"0.00000830","OBJECT_ID":"2022-101AS","TLE_LINE2":"2 53567  53.2185  58.5922 0001140  83.3389 276.7733 15.08838648 38910","ELEMENT_SET_NO":"999","TIME_SYSTEM":"UTC","LAUNCH_DATE":"2022-08-19","SITE":"AFETR","OBJECT_NAME":"STARLINK-4585","MEAN_ELEMENT_THEORY":"SGP4","MEAN_MOTION":"15.08838648","REF_FRAME":"TEME","MEAN_MOTION_DDOT":"0.0000000000000","COUNTRY_CODE":"US","REV_AT_EPOCH":"3891","DECAY_DATE":null,"ARG_OF_PERICENTER":"83.3389","RCS_SIZE":"LARGE","BSTAR":"0.00007025800000"},{"FILE":"3898258","SEMIMAJOR_AXIS":"6917.906","MEAN_MOTION_DOT":"-0.00001047","OBJECT_ID":"2022-101AT","INCLINATION":"53.2193","EPHEMERIS_TYPE":"0","RA_OF_ASC_NODE":"58.1565","PERIOD":"95.438","TLE_LINE1":"1 53568U 22101AT  23121.25369120 -.00001047  00000-0 -47695-4 0  9999","ECCENTRICITY":"0.00011320","GP_ID":"231021668","CENTER_NAME":"EARTH","CLASSIFICATION_TYPE":"U","APOAPSIS":"540.554","EPOCH":"2023-05-01T06:05:18.919680","PERIAPSIS":"538.988","OBJECT_TYPE":"PAYLOAD","MEAN_ANOMALY":"258.3732","NORAD_CAT_ID":"53568","DECAY_DATE":null,"RCS_SIZE":"LARGE","BSTAR":"-0.00004769500000","ARG_OF_PERICENTER":"101.7387","REV_AT_EPOCH":"3961","COUNTRY_CODE":"US","MEAN_MOTION_DDOT":"0.0000000000000","MEAN_MOTION":"15.08831625","REF_FRAME":"TEME","OBJECT_NAME":"STARLINK-4583","MEAN_ELEMENT_THEORY":"SGP4","LAUNCH_DATE":"2022-08-19","SITE":"AFETR","TIME_SYSTEM":"UTC","ELEMENT_SET_NO":"999","TLE_LINE2":"2 53568  53.2193  58.1565 0001132 101.7387 258.3732 15.08831625 39614"},{"RA_OF_ASC_NODE":"58.5464","PERIOD":"95.437","TLE_LINE1":"1 53569U 22101AU  23121.20218251 -.00000114  00000-0  10931-4 0  9999","FILE":"3898258","MEAN_MOTION_DOT":"-0.00000114","SEMIMAJOR_AXIS":"6917.865","OBJECT_ID":"2022-101AU","INCLINATION":"53.2191","EPHEMERIS_TYPE":"0","APOAPSIS":"540.686","EPOCH":"2023-05-01T04:51:08.568864","OBJECT_TYPE":"PAYLOAD","MEAN_ANOMALY":"258.2872","NORAD_CAT_ID":"53569","PERIAPSIS":"538.774","GP_ID":"231022419","ECCENTRICITY":"0.00013820","CENTER_NAME":"EARTH","CLASSIFICATION_TYPE":"U","COUNTRY_CODE":"US","MEAN_MOTION_DDOT":"0.0000000000000","REF_FRAME":"TEME","MEAN_MOTION":"15.08844999","DECAY_DATE":null,"RCS_SIZE":"LARGE","BSTAR":"0.00001093100000","ARG_OF_PERICENTER":"101.8275","REV_AT_EPOCH":"3958","SITE":"AFETR","LAUNCH_DATE":"2022-08-19","TIME_SYSTEM":"UTC","ELEMENT_SET_NO":"999","TLE_LINE2":"2 53569  53.2191  58.5464 0001382 101.8275 258.2872 15.08844999 39587","MEAN_ELEMENT_THEORY":"SGP4","OBJECT_NAME":"STARLINK-4582"},{"TLE_LINE1":"1 53570U 22101AV  23121.19113589  .00000626  00000-0  57441-4 0  9991","RA_OF_ASC_NODE":"58.4805","PERIOD":"95.438","EPHEMERIS_TYPE":"0","FILE":"3898258","SEMIMAJOR_AXIS":"6917.903","OBJECT_ID":"2022-101AV","MEAN_MOTION_DOT":"0.00000626","INCLINATION":"53.2200","PERIAPSIS":"539.018","MEAN_ANOMALY":"269.1097","OBJECT_TYPE":"PAYLOAD","NORAD_CAT_ID":"53570","APOAPSIS":"540.519","EPOCH":"2023-05-01T04:35:14.140896","CLASSIFICATION_TYPE":"U","ECCENTRICITY":"0.00010850","GP_ID":"231020667","CENTER_NAME":"EARTH","MEAN_MOTION":"15.08832455","REF_FRAME":"TEME","COUNTRY_CODE":"US","MEAN_MOTION_DDOT":"0.0000000000000","REV_AT_EPOCH":"3960","DECAY_DATE":null,"ARG_OF_PERICENTER":"91.0019","RCS_SIZE":"LARGE","BSTAR":"0.00005744100000","ELEMENT_SET_NO":"999","TLE_LINE2":"2 53570  53.2200  58.4805 0001085  91.0019 269.1097 15.08832455 39601","LAUNCH_DATE":"2022-08-19","SITE":"AFETR","TIME_SYSTEM":"UTC","OBJECT_NAME":"STARLINK-4550","MEAN_ELEMENT_THEORY":"SGP4"},{"RA_OF_ASC_NODE":"58.5032","PERIOD":"95.438","TLE_LINE1":"1 53571U 22101AW  23121.19482171 -.00001184  00000-0 -56333-4 0  9999","FILE":"3898258","SEMIMAJOR_AXIS":"6917.919","OBJECT_ID":"2022-101AW","MEAN_MOTION_DOT":"-0.00001184","INCLINATION":"53.2187","EPHEMERIS_TYPE":"0","APOAPSIS":"540.671","EPOCH":"2023-05-01T04:40:32.595744","NORAD_CAT_ID":"53571","OBJECT_TYPE":"PAYLOAD","MEAN_ANOMALY":"260.0997","PERIAPSIS":"538.896","GP_ID":"231020917","ECCENTRICITY":"0.00012830","CENTER_NAME":"EARTH","CLASSIFICATION_TYPE":"U","COUNTRY_CODE":"US","MEAN_MOTION_DDOT":"0.0000000000000","REF_FRAME":"TEME","MEAN_MOTION":"15.08827430","BSTAR":"-0.00005633300000","DECAY_DATE":null,"RCS_SIZE":"LARGE","ARG_OF_PERICENTER":"100.0140","REV_AT_EPOCH":"3960","LAUNCH_DATE":"2022-08-19","SITE":"AFETR","TIME_SYSTEM":"UTC","ELEMENT_SET_NO":"999","TLE_LINE2":"2 53571  53.2187  58.5032 0001283 100.0140 260.0997 15.08827430 39601","MEAN_ELEMENT_THEORY":"SGP4","OBJECT_NAME":"STARLINK-4584"},{"OBJECT_TYPE":"PAYLOAD","MEAN_ANOMALY":"286.1112","NORAD_CAT_ID":"53572","PERIAPSIS":"538.849","APOAPSIS":"540.617","EPOCH":"2023-05-01T05:38:47.759136","CLASSIFICATION_TYPE":"U","GP_ID":"231027227","ECCENTRICITY":"0.00012780","CENTER_NAME":"EARTH","TLE_LINE1":"1 53572U 22101AX  23121.23527499  .00006181  00000-0  40606-3 0  9993","RA_OF_ASC_NODE":"58.0439","PERIOD":"95.437","EPHEMERIS_TYPE":"0","FILE":"3898364","SEMIMAJOR_AXIS":"6917.868","OBJECT_ID":"2022-101AX","MEAN_MOTION_DOT":"0.00006181","INCLINATION":"53.2176","ELEMENT_SET_NO":"999","TLE_LINE2":"2 53572  53.2176  58.0439 0001278  74.0020 286.1112 15.08844075 38923","SITE":"AFETR","LAUNCH_DATE":"2022-08-19","TIME_SYSTEM":"UTC","MEAN_ELEMENT_THEORY":"SGP4","OBJECT_NAME":"STARLINK-4555","REF_FRAME":"TEME","MEAN_MOTION":"15.08844075","COUNTRY_CODE":"US","MEAN_MOTION_DDOT":"0.0000000000000","REV_AT_EPOCH":"3892","BSTAR":"0.00040606000000","DECAY_DATE":null,"RCS_SIZE":"LARGE","ARG_OF_PERICENTER":"74.0020"},{"LAUNCH_DATE":"2022-08-19","SITE":"AFETR","TIME_SYSTEM":"UTC","ELEMENT_SET_NO":"999","TLE_LINE2":"2 53573  53.2170  59.0261 0001332 101.8383 258.2759 15.08841369 38890","OBJECT_NAME":"STARLINK-4547","MEAN_ELEMENT_THEORY":"SGP4","COUNTRY_CODE":"US","MEAN_MOTION_DDOT":"0.0000000000000","MEAN_MOTION":"15.08841369","REF_FRAME":"TEME","DECAY_DATE":null,"ARG_OF_PERICENTER":"101.8383","RCS_SIZE":"LARGE","BSTAR":"0.00004400400000","REV_AT_EPOCH":"3889","APOAPSIS":"540.663","EPOCH":"2023-05-01T01:13:50.411424","PERIAPSIS":"538.820","OBJECT_TYPE":"PAYLOAD","MEAN_ANOMALY":"258.2759","NORAD_CAT_ID":"53573","ECCENTRICITY":"0.00013320","GP_ID":"231021919","CENTER_NAME":"EARTH","CLASSIFICATION_TYPE":"U","RA_OF_ASC_NODE":"59.0261","PERIOD":"95.437","TLE_LINE1":"1 53573U 22101AY  23121.05127791  .00000413  00000-0  44004-4 0  9994","SEMIMAJOR_AXIS":"6917.876","FILE":"3898258","MEAN_MOTION_DOT":"0.00000413","OBJECT_ID":"2022-101AY","INCLINATION":"53.2170","EPHEMERIS_TYPE":"0"},{"DECAY_DATE":null,"RCS_SIZE":"LARGE","ARG_OF_PERICENTER":"100.0758","BSTAR":"0.00043953000000","REV_AT_EPOCH":"3892","COUNTRY_CODE":"US","MEAN_MOTION_DDOT":"0.0000000000000","MEAN_MOTION":"15.08835776","REF_FRAME":"TEME","OBJECT_NAME":"STARLINK-4559","MEAN_ELEMENT_THEORY":"SGP4","LAUNCH_DATE":"2022-08-19","SITE":"AFETR","TIME_SYSTEM":"UTC","ELEMENT_SET_NO":"999","TLE_LINE2":"2 53574  53.2169  58.0606 0001454 100.0758 260.0399 15.08835776 38923","SEMIMAJOR_AXIS":"6917.893","FILE":"3898258","OBJECT_ID":"2022-101AZ","MEAN_MOTION_DOT":"0.00006713","INCLINATION":"53.2169","EPHEMERIS_TYPE":"0","RA_OF_ASC_NODE":"58.0606","PERIOD":"95.438","TLE_LINE1":"1 53574U 22101AZ  23121.23894995  .00006713  00000-0  43953-3 0  9992","ECCENTRICITY":"0.00014540","GP_ID":"231021168","CENTER_NAME":"EARTH","CLASSIFICATION_TYPE":"U","APOAPSIS":"540.764","EPOCH":"2023-05-01T05:44:05.275680","PERIAPSIS":"538.752","NORAD_CAT_ID":"53574","OBJECT_TYPE":"PAYLOAD","MEAN_ANOMALY":"260.0399"},{"CLASSIFICATION_TYPE":"U","CENTER_NAME":"EARTH","GP_ID":"231021418","ECCENTRICITY":"0.00011970","OBJECT_TYPE":"PAYLOAD","MEAN_ANOMALY":"268.4913","NORAD_CAT_ID":"53575","PERIAPSIS":"538.922","EPOCH":"2023-05-01T05:54:41.861376","APOAPSIS":"540.579","EPHEMERIS_TYPE":"0","INCLINATION":"53.2177","FILE":"3898258","SEMIMAJOR_AXIS":"6917.886","OBJECT_ID":"2022-101BA","MEAN_MOTION_DOT":"0.00002235","TLE_LINE1":"1 53575U 22101BA  23121.24631784  .00002235  00000-0  15844-3 0  9992","PERIOD":"95.438","RA_OF_ASC_NODE":"58.1106","MEAN_ELEMENT_THEORY":"SGP4","OBJECT_NAME":"STARLINK-4551","TLE_LINE2":"2 53575  53.2177  58.1106 0001197  91.6217 268.4913 15.08838316 39612","ELEMENT_SET_NO":"999","TIME_SYSTEM":"UTC","SITE":"AFETR","LAUNCH_DATE":"2022-08-19","REV_AT_EPOCH":"3961","RCS_SIZE":"LARGE","DECAY_DATE":null,"ARG_OF_PERICENTER":"91.6217","BSTAR":"0.00015844000000","REF_FRAME":"TEME","MEAN_MOTION":"15.08838316","MEAN_MOTION_DDOT":"0.0000000000000","COUNTRY_CODE":"US"},{"TLE_LINE1":"1 53576U 22101BB  23121.24727062  .00003690  00000-0  24978-3 0  9992","RA_OF_ASC_NODE":"58.1082","PERIOD":"95.437","EPHEMERIS_TYPE":"0","FILE":"3898258","SEMIMAJOR_AXIS":"6917.875","OBJECT_ID":"2022-101BB","MEAN_MOTION_DOT":"0.00003690","INCLINATION":"53.2168","OBJECT_TYPE":"PAYLOAD","MEAN_ANOMALY":"248.8781","NORAD_CAT_ID":"53576","PERIAPSIS":"538.864","APOAPSIS":"540.615","EPOCH":"2023-05-01T05:56:04.181568","CLASSIFICATION_TYPE":"U","GP_ID":"231021669","ECCENTRICITY":"0.00012660","CENTER_NAME":"EARTH","REF_FRAME":"TEME","MEAN_MOTION":"15.08841886","COUNTRY_CODE":"US","MEAN_MOTION_DDOT":"0.0000000000000","REV_AT_EPOCH":"3974","DECAY_DATE":null,"BSTAR":"0.00024978000000","RCS_SIZE":"LARGE","ARG_OF_PERICENTER":"111.2347","ELEMENT_SET_NO":"999","TLE_LINE2":"2 53576  53.2168  58.1082 0001266 111.2347 248.8781 15.08841886 39741","SITE":"AFETR","LAUNCH_DATE":"2022-08-19","TIME_SYSTEM":"UTC","MEAN_ELEMENT_THEORY":"SGP4","OBJECT_NAME":"STARLINK-4581"}];
